{
  "type": "FeatureCollection",
  "features": [
    {
      "type": "Feature",
      "properties": {
        "norad_id": 15362,
        "name": "NOVA 3",
        "group": "nnss",
        "lat": -36.15941862681278,
        "lon": 80.5993154349428,
        "alt_km": 1156.9543759121107,
        "timestamp": "2025-12-10T14:53:37.361476+00:00",
        "meta_object_name": "NOVA 3",
        "meta_object_id": "1984-110A",
        "meta_epoch": "2025-12-10T08:08:18.362688",
        "meta_mean_motion": 13.23044241,
        "meta_eccentricity": 0.00306698,
        "meta_inclination": 90.1224,
        "meta_ra_of_asc_node": 80.5065,
        "meta_arg_of_pericenter": 338.7518,
        "meta_mean_anomaly": 85.4174,
        "meta_ephemeris_type": 0,
        "meta_classification_type": "U",
        "meta_norad_cat_id": 15362,
        "meta_element_set_no": 999,
        "meta_rev_at_epoch": 98667,
        "meta_bstar": 0.00022498944,
        "meta_mean_motion_dot": 1.03e-06,
        "meta_mean_motion_ddot": 0,
        "tle_line1": "1 15362U 84110A   25344.33910142  .00000103  00000+0  22499-3 0  9994",
        "tle_line2": "2 15362  90.1224  80.5065 0030669 338.7518  85.4174 13.23044241986679"
      },
      "geometry": {
        "type": "Point",
        "coordinates": [
          80.5993154349428,
          -36.15941862681278
        ]
      }
    },
    {
      "type": "Feature",
      "properties": {
        "norad_id": 15935,
        "name": "OSCAR 30",
        "group": "nnss",
        "lat": -55.68243536557561,
        "lon": 100.0540903419106,
        "alt_km": 1235.01112943293,
        "timestamp": "2025-12-10T14:53:37.361486+00:00",
        "meta_object_name": "OSCAR 30",
        "meta_object_id": "1985-066A",
        "meta_epoch": "2025-12-10T06:30:31.272192",
        "meta_mean_motion": 13.36077806,
        "meta_eccentricity": 0.01694237,
        "meta_inclination": 90.1649,
        "meta_ra_of_asc_node": 99.8067,
        "meta_arg_of_pericenter": 90.7951,
        "meta_mean_anomaly": 335.2342,
        "meta_ephemeris_type": 0,
        "meta_classification_type": "U",
        "meta_norad_cat_id": 15935,
        "meta_element_set_no": 999,
        "meta_rev_at_epoch": 96420,
        "meta_bstar": 0.00026556644,
        "meta_mean_motion_dot": 1.58e-06,
        "meta_mean_motion_ddot": 0,
        "tle_line1": "1 15935U 85066A   25344.27119528  .00000158  00000+0  26557-3 0  9992",
        "tle_line2": "2 15935  90.1649  99.8067 0169423  90.7951 335.2342 13.36077806964203"
      },
      "geometry": {
        "type": "Point",
        "coordinates": [
          100.0540903419106,
          -55.68243536557561
        ]
      }
    },
    {
      "type": "Feature",
      "properties": {
        "norad_id": 15936,
        "name": "OSCAR 24",
        "group": "nnss",
        "lat": 19.93089708405929,
        "lon": 92.20307947205396,
        "alt_km": 1091.9581997525802,
        "timestamp": "2025-12-10T14:53:37.361496+00:00",
        "meta_object_name": "OSCAR 24",
        "meta_object_id": "1985-066B",
        "meta_epoch": "2025-12-10T07:52:05.180736",
        "meta_mean_motion": 13.35935302,
        "meta_eccentricity": 0.01704815,
        "meta_inclination": 90.1788,
        "meta_ra_of_asc_node": 92.2628,
        "meta_arg_of_pericenter": 97.0704,
        "meta_mean_anomaly": 317.819,
        "meta_ephemeris_type": 0,
        "meta_classification_type": "U",
        "meta_norad_cat_id": 15936,
        "meta_element_set_no": 999,
        "meta_rev_at_epoch": 96611,
        "meta_bstar": 0.00022578652,
        "meta_mean_motion_dot": 1.36e-06,
        "meta_mean_motion_ddot": 0,
        "tle_line1": "1 15936U 85066B   25344.32783774  .00000136  00000+0  22579-3 0  9995",
        "tle_line2": "2 15936  90.1788  92.2628 0170481  97.0704 317.8190 13.35935302966112"
      },
      "geometry": {
        "type": "Point",
        "coordinates": [
          92.20307947205396,
          19.93089708405929
        ]
      }
    },
    {
      "type": "Feature",
      "properties": {
        "norad_id": 17070,
        "name": "POLAR BEAR",
        "group": "nnss",
        "lat": -81.3574987330509,
        "lon": -178.65973237177303,
        "alt_km": 1015.0743105007004,
        "timestamp": "2025-12-10T14:53:37.361505+00:00",
        "meta_object_name": "POLAR BEAR",
        "meta_object_id": "1986-088A",
        "meta_epoch": "2025-12-10T07:23:53.550816",
        "meta_mean_motion": 13.75250078,
        "meta_eccentricity": 0.00408265,
        "meta_inclination": 89.6176,
        "meta_ra_of_asc_node": 183.8711,
        "meta_arg_of_pericenter": 126.2884,
        "meta_mean_anomaly": 46.8679,
        "meta_ephemeris_type": 0,
        "meta_classification_type": "U",
        "meta_norad_cat_id": 17070,
        "meta_element_set_no": 999,
        "meta_rev_at_epoch": 95945,
        "meta_bstar": 0.00014713443,
        "meta_mean_motion_dot": 1.53e-06,
        "meta_mean_motion_ddot": 0,
        "tle_line1": "1 17070U 86088A   25344.30825869  .00000153  00000+0  14713-3 0  9991",
        "tle_line2": "2 17070  89.6176 183.8711 0040826 126.2884  46.8679 13.75250078959454"
      },
      "geometry": {
        "type": "Point",
        "coordinates": [
          -178.65973237177303,
          -81.3574987330509
        ]
      }
    },
    {
      "type": "Feature",
      "properties": {
        "norad_id": 18361,
        "name": "OSCAR 27",
        "group": "nnss",
        "lat": 47.04223848211762,
        "lon": 78.79097737589376,
        "alt_km": 1163.6062929508334,
        "timestamp": "2025-12-10T14:53:37.361515+00:00",
        "meta_object_name": "OSCAR 27",
        "meta_object_id": "1987-080A",
        "meta_epoch": "2025-12-10T07:30:50.639904",
        "meta_mean_motion": 13.44905998,
        "meta_eccentricity": 0.01027331,
        "meta_inclination": 90.3742,
        "meta_ra_of_asc_node": 79.1816,
        "meta_arg_of_pericenter": 230.8235,
        "meta_mean_anomaly": 128.3753,
        "meta_ephemeris_type": 0,
        "meta_classification_type": "U",
        "meta_norad_cat_id": 18361,
        "meta_element_set_no": 999,
        "meta_rev_at_epoch": 87524,
        "meta_bstar": 0.00027654573,
        "meta_mean_motion_dot": 1.75e-06,
        "meta_mean_motion_ddot": 0,
        "tle_line1": "1 18361U 87080A   25344.31308611  .00000175  00000+0  27655-3 0  9993",
        "tle_line2": "2 18361  90.3742  79.1816 0102733 230.8235 128.3753 13.44905998875244"
      },
      "geometry": {
        "type": "Point",
        "coordinates": [
          78.79097737589376,
          47.04223848211762
        ]
      }
    },
    {
      "type": "Feature",
      "properties": {
        "norad_id": 18362,
        "name": "OSCAR 29",
        "group": "nnss",
        "lat": 62.90934497472667,
        "lon": 78.91742530137574,
        "alt_km": 1162.9848527454506,
        "timestamp": "2025-12-10T14:53:37.361525+00:00",
        "meta_object_name": "OSCAR 29",
        "meta_object_id": "1987-080B",
        "meta_epoch": "2025-12-10T07:44:04.763040",
        "meta_mean_motion": 13.44447807,
        "meta_eccentricity": 0.01038114,
        "meta_inclination": 90.3754,
        "meta_ra_of_asc_node": 79.6406,
        "meta_arg_of_pericenter": 254.1865,
        "meta_mean_anomaly": 165.6643,
        "meta_ephemeris_type": 0,
        "meta_classification_type": "U",
        "meta_norad_cat_id": 18362,
        "meta_element_set_no": 999,
        "meta_rev_at_epoch": 87477,
        "meta_bstar": 0.00024989806,
        "meta_mean_motion_dot": 1.57e-06,
        "meta_mean_motion_ddot": 0,
        "tle_line1": "1 18362U 87080B   25344.32227735  .00000157  00000+0  24990-3 0  9991",
        "tle_line2": "2 18362  90.3754  79.6406 0103811 254.1865 165.6643 13.44447807874773"
      },
      "geometry": {
        "type": "Point",
        "coordinates": [
          78.91742530137574,
          62.90934497472667
        ]
      }
    },
    {
      "type": "Feature",
      "properties": {
        "norad_id": 19070,
        "name": "OSCAR 23",
        "group": "nnss",
        "lat": -33.66150451899527,
        "lon": 16.54122007917786,
        "alt_km": 1270.4489722166063,
        "timestamp": "2025-12-10T14:53:37.361534+00:00",
        "meta_object_name": "OSCAR 23",
        "meta_object_id": "1988-033A",
        "meta_epoch": "2025-12-10T02:41:29.887872",
        "meta_mean_motion": 13.27786545,
        "meta_eccentricity": 0.01893129,
        "meta_inclination": 90.3214,
        "meta_ra_of_asc_node": 16.3112,
        "meta_arg_of_pericenter": 187.2307,
        "meta_mean_anomaly": 228.9665,
        "meta_ephemeris_type": 0,
        "meta_classification_type": "U",
        "meta_norad_cat_id": 19070,
        "meta_element_set_no": 999,
        "meta_rev_at_epoch": 82218,
        "meta_bstar": 0.00019058217,
        "meta_mean_motion_dot": 1.03e-06,
        "meta_mean_motion_ddot": 0,
        "tle_line1": "1 19070U 88033A   25344.11215148  .00000103  00000+0  19058-3 0  9999",
        "tle_line2": "2 19070  90.3214  16.3112 0189312 187.2307 228.9665 13.27786545822181"
      },
      "geometry": {
        "type": "Point",
        "coordinates": [
          16.54122007917786,
          -33.66150451899527
        ]
      }
    }
  ]
}